{
    "links": {
        "self": "http://www.neowsapp.com/rest/v1/neo/3331849?api_key=iIulBulltgU6a56xZRHN4H3l9WmuAYTsLGpBGhQ2"
    },
    "id": "3331849",
    "neo_reference_id": "3331849",
    "name": "(2006 JP)",
    "designation": "2006 JP",
    "nasa_jpl_url": "http://ssd.jpl.nasa.gov/sbdb.cgi?sstr=3331849",
    "absolute_magnitude_h": 23.6,
    "estimated_diameter": {
        "kilometers": {
            "estimated_diameter_min": 0.0506471459,
            "estimated_diameter_max": 0.1132504611
        },
        "meters": {
            "estimated_diameter_min": 50.6471458835,
            "estimated_diameter_max": 113.2504610618
        },
        "miles": {
            "estimated_diameter_min": 0.0314706677,
            "estimated_diameter_max": 0.0703705522
        },
        "feet": {
            "estimated_diameter_min": 166.1651821003,
            "estimated_diameter_max": 371.5566426699
        }
    },
    "is_potentially_hazardous_asteroid": false,
    "close_approach_data": [
        {
            "close_approach_date": "2006-05-04",
            "close_approach_date_full": "2006-May-04 07:45",
            "epoch_date_close_approach": 1146728700000,
            "relative_velocity": {
                "kilometers_per_second": "10.3271816669",
                "kilometers_per_hour": "37177.8540008213",
                "miles_per_hour": "23100.872670677"
            },
            "miss_distance": {
                "astronomical": "0.1541121974",
                "lunar": "59.9496447886",
                "kilometers": "23054856.472059538",
                "miles": "14325623.5237481044"
            },
            "orbiting_body": "Earth"
        }
    ],
    "orbital_data": {
        "orbit_id": "7",
        "orbit_determination_date": "2017-04-06 09:08:41",
        "first_observation_date": "2006-05-02",
        "last_observation_date": "2006-05-23",
        "data_arc_in_days": 21,
        "observations_used": 22,
        "orbit_uncertainty": "9",
        "minimum_orbit_intersection": ".151375",
        "jupiter_tisserand_invariant": "4.097",
        "epoch_osculation": "2453861.5",
        "eccentricity": ".3163969693405843",
        "semi_major_axis": "1.693799702522572",
        "inclination": "18.71922749837192",
        "ascending_node_longitude": "221.2632826003422",
        "orbital_period": "805.1772679886783",
        "perihelion_distance": "1.157886609974447",
        "perihelion_argument": "7.481401681075122",
        "aphelion_distance": "2.229712795070697",
        "perihelion_time": "2453863.735819162222",
        "mean_anomaly": "359.00035069245",
        "mean_motion": ".4471065122085166",
        "equinox": "J2000",
        "orbit_class": {
            "orbit_class_type": "AMO",
            "orbit_class_description": "Near-Earth asteroid orbits similar to that of 1221 Amor",
            "orbit_class_range": "1.017 AU < q (perihelion) < 1.3 AU"
        }
    },
    "is_sentry_object": false
}